*******************************************************************************
JPL/HORIZONS             3276 Porta Coeli (1982 RZ1)       2023-Sep-04 11:22:41
Rec #:    3276 (+COV) Soln.date: 2023-Aug-23_08:40:52   # obs: 4479 (1974-2023)
 
IAU76/J2000 helio. ecliptic osc. elements (au, days, deg., period=Julian yrs):
 
  EPOCH=  2457774.5 ! 2017-Jan-21.00 (TDB)         Residual RMS= .24233
   EC= .1639407481324041   QR= 2.612986633747917   TP= 2457477.1075604041
   OM= 71.10022458182694   W=  340.5195058123273   IN= 2.671106338200987
   A= 3.125360586478777    MA= 53.04980610668404   ADIST= 3.637734539209637
   PER= 5.52533            N= .17838317            ANGMOM= .029999601
   DAN= 2.63423            DDN= 3.59735            L= 51.6393044
   B= -.8904896            MOID= 1.62377           TP= 2016-Mar-29.6075604041
 
Asteroid physical parameters (km, seconds, rotational period in hours):
   GM= n.a.                RAD= 9.205              ROTPER= n.a.
   H= 12.52                G= .150                 B-V= n.a.
                           ALBEDO= .063            STYP= n.a.

ASTEROID comments: 
1: soln ref.= JPL#49, OCC=0
2: source=ORB
*******************************************************************************


*******************************************************************************
Ephemeris / API_USER Mon Sep  4 11:22:41 2023 Pasadena, USA      / Horizons
*******************************************************************************
Target body name: 3276 Porta Coeli (1982 RZ1)     {source: JPL#49}
Center body name: Solar System Barycenter (0)     {source: DE441}
Center-site name: BODY CENTER
*******************************************************************************
Start time      : A.D. 2023-Aug-12 00:00:00.0000 TDB
Stop  time      : A.D. 2023-Aug-13 00:00:00.0000 TDB
Step-size       : 2880 minutes
*******************************************************************************
Center geodetic : 0.0, 0.0, 0.0                   {E-lon(deg),Lat(deg),Alt(km)}
Center cylindric: 0.0, 0.0, 0.0                   {E-lon(deg),Dxy(km),Dz(km)}
Center radii    : (undefined)
Small perturbers: Yes                             {source: SB441-N16}
Output units    : KM-S
Calendar mode   : Mixed Julian/Gregorian
Output type     : GEOMETRIC cartesian states
Output format   : 2 (position and velocity)
Reference frame : Ecliptic of J2000.0
*******************************************************************************
Initial IAU76/J2000 heliocentric ecliptic osculating elements (au, days, deg.):
  EPOCH=  2457774.5 ! 2017-Jan-21.00 (TDB)         Residual RMS= .24233        
   EC= .1639407481324041   QR= 2.612986633747917   TP= 2457477.1075604041      
   OM= 71.10022458182694   W=  340.5195058123273   IN= 2.671106338200987       
  Equivalent ICRF heliocentric cartesian coordinates (au, au/d):
   X=-1.503308832133395E+00  Y= 2.209819787135547E+00  Z= 1.070804896072060E+00
  VX=-9.667423013109669E-03 VY=-3.958463929861674E-03 VZ=-1.319589054303095E-03
Asteroid physical parameters (km, seconds, rotational period in hours):        
   GM= n.a.                RAD= 9.205              ROTPER= n.a.                
   H= 12.52                G= .150                 B-V= n.a.                   
                           ALBEDO= .063            STYP= n.a.                  
*******************************************************************************
JDTDB
   X     Y     Z
   VX    VY    VZ
*******************************************************************************
$$SOE
2460168.500000000 = A.D. 2023-Aug-12 00:00:00.0000 TDB 
 X =-5.081132053573325E+08 Y =-4.580529929818783E+07 Z = 2.158096396103428E+07
 VX=-6.743693297168656E-01 VY=-1.541554806918347E+01 VZ=-2.033726930338782E-01
$$EOE
*******************************************************************************
 
TIME

  Barycentric Dynamical Time ("TDB" or T_eph) output was requested. This
continuous coordinate time is equivalent to the relativistic proper time
of a clock at rest in a reference frame co-moving with the solar system
barycenter but outside the system's gravity well. It is the independent
variable in the solar system relativistic equations of motion.

  TDB runs at a uniform rate of one SI second per second and is independent
of irregularities in Earth's rotation.
 
CALENDAR SYSTEM

  Mixed calendar mode was active such that calendar dates after AD 1582-Oct-15
(if any) are in the modern Gregorian system. Dates prior to 1582-Oct-5 (if any)
are in the Julian calendar system, which is automatically extended for dates
prior to its adoption on 45-Jan-1 BC.  The Julian calendar is useful for
matching historical dates. The Gregorian calendar more accurately corresponds
to the Earth's orbital motion and seasons. A "Gregorian-only" calendar mode is
available if such physical events are the primary interest.

REFERENCE FRAME AND COORDINATES

  Ecliptic at the standard reference epoch

    Reference epoch: J2000.0
    X-Y plane: adopted Earth orbital plane at the reference epoch
               Note: IAU76 obliquity of 84381.448 arcseconds wrt ICRF X-Y plane
    X-axis   : ICRF
    Z-axis   : perpendicular to the X-Y plane in the directional (+ or -) sense
               of Earth's north pole at the reference epoch.

  Symbol meaning:

    JDTDB    Julian Day Number, Barycentric Dynamical Time
      X      X-component of position vector (km)
      Y      Y-component of position vector (km)
      Z      Z-component of position vector (km)
      VX     X-component of velocity vector (km/sec)                           
      VY     Y-component of velocity vector (km/sec)                           
      VZ     Z-component of velocity vector (km/sec)                           

ABERRATIONS AND CORRECTIONS

 Geometric state vectors have NO corrections or aberrations applied.

Computations by ...

    Solar System Dynamics Group, Horizons On-Line Ephemeris System
    4800 Oak Grove Drive, Jet Propulsion Laboratory
    Pasadena, CA  91109   USA

    General site: https://ssd.jpl.nasa.gov/
    Mailing list: https://ssd.jpl.nasa.gov/email_list.html
    System news : https://ssd.jpl.nasa.gov/horizons/news.html
    User Guide  : https://ssd.jpl.nasa.gov/horizons/manual.html
    Connect     : browser        https://ssd.jpl.nasa.gov/horizons/app.html#/x
                  API            https://ssd-api.jpl.nasa.gov/doc/horizons.html
                  command-line   telnet ssd.jpl.nasa.gov 6775
                  e-mail/batch   https://ssd.jpl.nasa.gov/ftp/ssd/hrzn_batch.txt
                  scripts        https://ssd.jpl.nasa.gov/ftp/ssd/SCRIPTS
    Author      : Jon.D.Giorgini@jpl.nasa.gov
*******************************************************************************
